IRIDIUM 126             
1 42809U 17039G   25219.46940248  .00000230  00000+0  74927-4 0  9996
2 42809  86.3992 124.8121 0002037  79.9636 280.1790 14.34216691424984
IRIDIUM 124             
1 42810U 17039H   25219.46900045  .00000272  00000+0  74818-4 0  9994
2 42810  86.4442  61.5142 0002188  93.5284 266.6168 14.43282873429860
IRIDIUM 128             
1 42811U 17039J   25219.52989312  .00000013  00000+0 -22623-5 0  9998
2 42811  86.4029 156.2672 0002138  93.5923 266.5517 14.34217586425027
IRIDIUM 121             
1 42812U 17039K   25219.48841243  .00000231  00000+0  75253-4 0  9991
2 42812  86.3992 124.8297 0002271  87.5898 272.5558 14.34219944424865
IRIDIUM 133             
1 42955U 17061A   25219.56160579  .00000025  00000+0  17228-5 0  9999
2 42955  86.4029 156.3638 0002214  85.3447 274.8001 14.34217713409826
IRIDIUM 100             
1 42956U 17061B   25219.55526172  .00000043  00000+0  83598-5 0  9997
2 42956  86.4029 156.2926 0002050  87.1734 272.9696 14.34218137409823
IRIDIUM 122             
1 42957U 17061C   25219.52355019  .00000019  00000+0 -42627-6 0  9998
2 42957  86.4027 156.3050 0002196  84.4771 275.6675 14.34217663409823
IRIDIUM 129             
1 42958U 17061D   25219.82799516 -.00000007  00000+0 -97370-5 0  9998
2 42958  86.4030 156.2416 0002372  74.5901 285.5557 14.34217618409889
